[{"OBJECT_NAME":"STARLINK-32931","OBJECT_ID":"2025-048S","EPOCH":"2026-03-09T10:28:03.068832","MEAN_MOTION":15.2757224,"ECCENTRICITY":0.00010473,"INCLINATION":43.0008,"RA_OF_ASC_NODE":86.7283,"ARG_OF_PERICENTER":248.1574,"MEAN_ANOMALY":111.9166,"EPHEMERIS_TYPE":0,"CLASSIFICATION_TYPE":"U","NORAD_CAT_ID":63199,"ELEMENT_SET_NO":999,"REV_AT_EPOCH":5705,"BSTAR":0.00073489359,"MEAN_MOTION_DOT":0.00020011,"MEAN_MOTION_DDOT":0},{"OBJECT_NAME":"COSMOS 2251 DEB","OBJECT_ID":"1993-036RB","EPOCH":"2026-03-09T01:08:04.800192","MEAN_MOTION":15.30699894,"ECCENTRICITY":0.00252965,"INCLINATION":73.7308,"RA_OF_ASC_NODE":76.2904,"ARG_OF_PERICENTER":263.9966,"MEAN_ANOMALY":95.8352,"EPHEMERIS_TYPE":0,"CLASSIFICATION_TYPE":"U","NORAD_CAT_ID":34410,"ELEMENT_SET_NO":999,"REV_AT_EPOCH":91089,"BSTAR":0.003018315,"MEAN_MOTION_DOT":0.00091531,"MEAN_MOTION_DDOT":0}]
